COSMOS 2433 (720)       
1 32275C 07052A   22053.99979167 -.00000000  00000-0  00000-0 0   534
2 32275  66.0841   8.4681 0003867 279.3778  16.3326  2.13103778    14
COSMOS 2432 (719)       
1 32276C 07052B   22053.99979167 -.00000000  00000-0  00000-0 0   535
2 32276  66.0975   8.5671 0012063 326.8095 277.5077  2.13103126    12
COSMOS 2434 (721)       
1 32393C 07065A   22053.99979167 -.00000000  00000-0  00000-0 0   539
2 32393  64.4063 245.3345 0005173  75.6494 109.2101  2.13102880    12
COSMOS 2436 (723)       
1 32395C 07065C   22053.99979167 -.00000000  00000-0  00000-0 0   531
2 32395  64.4151 245.3906 0016492   8.2658 312.5351  2.13102755    12
COSMOS 2456 (730)       
1 36111C 09070A   22053.99979167  .00000000  00000-0  00000-0 0   538
2 36111  64.3229 124.9852 0004578 301.9361  50.0870  2.13099065    14
COSMOS 2457 (733)       
1 36112C 09070B   22053.99979167  .00000000  00000-0  00000-0 0   539
2 36112  64.3060 124.8639 0005086 180.3832 298.0257  2.13101084    15
COSMOS 2461 (735)       
1 36401C 10007B   22053.99979167 -.00000000  00000-0  00000-0 0   533
2 36401  65.9717   7.3223 0021671   2.4916 150.7506  2.13103363    14
COSMOS 2460 (732)       
1 36402C 10007C   22053.99979167 -.00000000  00000-0  00000-0 0   534
2 36402  65.9585   7.2749 0002138 326.2353 134.3441  2.13106050    11
COSMOS 2476 (744)       
1 37867C 11064A   22053.99979167  .00000000  00000-0  00000-0 0   533
2 37867  64.6138 126.2969 0022307 237.6761  18.8643  2.13101645    16
COSMOS 2477 (745)       
1 37868C 11064B   22053.99979167  .00000000  00000-0  00000-0 0   534
2 37868  64.6216 126.3603 0019627 238.7242 195.9976  2.13101468    16
COSMOS 2475 (743)       
1 37869C 11064C   22053.99979167  .00000000  00000-0  00000-0 0   535
2 37869  64.6289 126.3674 0023792 256.4284 136.2048  2.13101704    17
COSMOS 2485 (747)       
1 39155C 13019A   22053.99979167  .00000000  00000-0  00000-0 0   537
2 39155  64.7784 126.7004 0022693 233.6967  67.2605  2.13101700    11
COSMOS 2492 (754)       
1 39620C 14012A   22053.99979167 -.00000000  00000-0  00000-0 0   539
2 39620  65.8456   6.9722 0015107 323.4857  12.0543  2.13102843    18
COSMOS 2500 (755)       
1 40001C 14032A   22053.99979167 -.00000000  00000-0  00000-0 0   536
2 40001  65.7853   6.8419 0005514 223.4664 331.0353  2.13102038    10
COSMOS 2501 (702)       
1 40315C 14075A   22053.99979167 -.00000000  00000-0  00000-0 0   531
2 40315  63.7145 245.1792 0016236 205.4291 156.5164  2.13101151    16
COSMOS 2514 (751)       
1 41330C 16008A   22053.99979167 -.00000000  00000-0  00000-0 0   537
2 41330  65.5860   6.5623 0009453 225.2470 152.8785  2.13102443    15
COSMOS 2522 (752)       
1 42939C 17055A   22053.99979167 -.00000000  00000-0  00000-0 0   536
2 42939  64.1738 245.7846 0004850 243.9315 253.3291  2.13101663    17
COSMOS 2527 (756)       
1 43508C 18053A   22053.99979167  .00000000  00000-0  00000-0 0   537
2 43508  64.9417 126.6766 0008981 233.5948 295.7661  2.13102285    18
COSMOS 2529 (757)       
1 43687C 18086A   22053.99979167 -.00000000  00000-0  00000-0 0   532
2 43687  64.3886 246.0701 0007230 276.9680 175.8044  2.13101801    12
COSMOS 2534 (758)       
1 44299C 19030A   22053.99979167 -.00000000  00000-0  00000-0 0   532
2 44299  64.4601 245.9442 0010547 298.4600 288.9526  2.13101828    14
COSMOS 2544 (759)       
1 44850C 19088A   22053.99979167  .00000000  00000-0  00000-0 0   537
2 44850  64.9267 126.5312 0013336 259.7496 313.1644  2.13102102    10
COSMOS 2547 (705)       
1 46805C 20075A   22053.99979167 -.00000000  00000-0  00000-0 0   538
2 46805  64.6833 245.3348 0005096 247.1234  27.5826  2.13102891    15
